STARLINK-32492          
1 62050U 24216U   26204.09461103  .00000227  00000+0  17760-4 0  9991
2 62050  43.0022 218.5874 0001497 275.7414  84.3267 15.27586636 94509
