[
  {
    "OBJECT_NAME": "STARLINK-32492",
    "OBJECT_ID": "2024-216U",
    "EPOCH": "2026-07-23T02:16:14.392992",
    "MEAN_MOTION": 15.27586636,
    "ECCENTRICITY": 0.00014971,
    "INCLINATION": 43.0022,
    "RA_OF_ASC_NODE": 218.5874,
    "ARG_OF_PERICENTER": 275.7414,
    "MEAN_ANOMALY": 84.3267,
    "EPHEMERIS_TYPE": 0,
    "CLASSIFICATION_TYPE": "U",
    "NORAD_CAT_ID": 62050,
    "ELEMENT_SET_NO": 999,
    "REV_AT_EPOCH": 9450,
    "BSTAR": 0.000017759694,
    "MEAN_MOTION_DOT": 0.00000227,
    "MEAN_MOTION_DDOT": 0
  }
]
